*******************************************************************************
Ephemeris / WWW_USER Thu May 23 08:24:16 2024 Pasadena, USA      / Horizons    
*******************************************************************************
Target body name: (2018 RC)                       {source: JPL#21}
Center body name: Earth (399)                     {source: DE441}
Center-site name: Gemini South Obs., Cerro Pachon
*******************************************************************************
Start time      : A.D. 2018-Oct-02 22:53:00.0000 UT      
Stop  time      : A.D. 2018-Oct-03 10:10:00.0000 UT      
Step-size       : 1 minutes
*******************************************************************************
Target pole/equ : undefined
Target radii    : undefined                                                    
Center geodetic : 289.2634, -30.2406227, 2.71233  {E-lon(deg),Lat(deg),Alt(km)}
Center cylindric: 289.2634,5517.21435,-3194.81213 {E-lon(deg),Dxy(km),Dz(km)}
Center pole/equ : ITRF93                          {East-longitude positive}
Center radii    : 6378.137, 6378.137, 6356.752 km {Equator_a, b, pole_c}       
Target primary  : Sun
Vis. interferer : MOON (R_eq= 1737.400) km        {source: DE441}
Rel. light bend : Sun                             {source: DE441}
Rel. lght bnd GM: 1.3271E+11 km^3/s^2                                          
Small-body perts: Yes                             {source: SB441-N16}
Atmos refraction: NO (AIRLESS)
RA format       : HMS
Time format     : CAL 
Calendar mode   : Mixed Julian/Gregorian
RTS-only print  : NO       
EOP file        : eop.240522.p240815                                           
EOP coverage    : DATA-BASED 1962-JAN-20 TO 2024-MAY-22. PREDICTS-> 2024-AUG-14
Units conversion: 1 au= 149597870.700 km, c= 299792.458 km/s, 1 day= 86400.0 s 
Table cut-offs 1: Elevation (-90.0deg=NO ),Airmass (>38.000=NO), Daylight (YES)
Table cut-offs 2: Solar elongation (  0.0,180.0=NO ),Local Hour Angle( 0.0=NO )
Table cut-offs 3: RA/DEC angular rate (     0.0=NO )                           
*******************************************************************************
Initial IAU76/J2000 heliocentric ecliptic osculating elements (au, days, deg.):
  EPOCH=  2458369.5 ! 2018-Sep-08.00 (TDB)         Residual RMS= .84866        
   EC= .2426621660028976   QR= .647471518312811    TP= 2458473.8617576878      
   OM= 346.8893436915528   W=  145.8737085184167   IN= 1.612045057594462       
  Equivalent ICRF heliocentric cartesian coordinates (au, au/d):
   X= 9.781363708094483E-01  Y=-2.377942828764822E-01  Z=-1.040448782093900E-01
  VX= 1.501011538102481E-03 VY= 1.393070215815854E-02 VZ= 6.509326736836346E-03
Asteroid physical parameters (km, seconds, rotational period in hours):        
   GM= n.a.                RAD= n.a.               ROTPER= .16548              
   H= 24.93                G= .150                 B-V= n.a.                   
                           ALBEDO= n.a.            STYP= n.a.                  
*******************************************************************************
 Date__(UT)__HR:MN     R.A._________(ICRF)_________DEC
******************************************************
$$SOE
 2018-Oct-03 00:56     13 13 39.856105 +01 32 07.54551
 2018-Oct-03 00:57     13 13 39.844438 +01 32 07.54515
 2018-Oct-03 00:58     13 13 39.832894 +01 32 07.54480
 2018-Oct-03 00:59     13 13 39.821471 +01 32 07.54447
 2018-Oct-03 01:00     13 13 39.810170 +01 32 07.54415
 2018-Oct-03 01:01     13 13 39.798990 +01 32 07.54384
 2018-Oct-03 01:02     13 13 39.787931 +01 32 07.54354
 2018-Oct-03 01:03     13 13 39.776993 +01 32 07.54326
 2018-Oct-03 01:04     13 13 39.766175 +01 32 07.54299
 2018-Oct-03 01:05     13 13 39.755478 +01 32 07.54274
 2018-Oct-03 01:06     13 13 39.744900 +01 32 07.54249
 2018-Oct-03 01:07     13 13 39.734442 +01 32 07.54226
 2018-Oct-03 01:08     13 13 39.724103 +01 32 07.54205
 2018-Oct-03 01:09     13 13 39.713883 +01 32 07.54185
 2018-Oct-03 01:10     13 13 39.703781 +01 32 07.54166
 2018-Oct-03 01:11     13 13 39.693798 +01 32 07.54149
 2018-Oct-03 01:12     13 13 39.683933 +01 32 07.54133
 2018-Oct-03 01:13     13 13 39.674185 +01 32 07.54118
 2018-Oct-03 01:14     13 13 39.664555 +01 32 07.54106
 2018-Oct-03 01:15     13 13 39.655042 +01 32 07.54094
 2018-Oct-03 01:16     13 13 39.645645 +01 32 07.54085
 2018-Oct-03 01:17     13 13 39.636365 +01 32 07.54076
 2018-Oct-03 01:18     13 13 39.627201 +01 32 07.54070
 2018-Oct-03 01:19     13 13 39.618153 +01 32 07.54065
 2018-Oct-03 01:20     13 13 39.609220 +01 32 07.54062
 2018-Oct-03 01:21     13 13 39.600403 +01 32 07.54060
 2018-Oct-03 01:22     13 13 39.591700 +01 32 07.54060
 2018-Oct-03 01:23     13 13 39.583111 +01 32 07.54061
 2018-Oct-03 01:24     13 13 39.574637 +01 32 07.54065
 2018-Oct-03 01:25     13 13 39.566276 +01 32 07.54070
 2018-Oct-03 01:26     13 13 39.558029 +01 32 07.54077
 2018-Oct-03 01:27     13 13 39.549894 +01 32 07.54085
 2018-Oct-03 01:28     13 13 39.541873 +01 32 07.54095
 2018-Oct-03 01:29     13 13 39.533964 +01 32 07.54107
 2018-Oct-03 01:30     13 13 39.526166 +01 32 07.54121
 2018-Oct-03 01:31     13 13 39.518481 +01 32 07.54137
 2018-Oct-03 01:32     13 13 39.510907 +01 32 07.54155
 2018-Oct-03 01:33     13 13 39.503444 +01 32 07.54174
 2018-Oct-03 01:34     13 13 39.496091 +01 32 07.54195
 2018-Oct-03 01:35     13 13 39.488849 +01 32 07.54219
 2018-Oct-03 01:36     13 13 39.481716 +01 32 07.54244
 2018-Oct-03 01:37     13 13 39.474693 +01 32 07.54271
 2018-Oct-03 01:38     13 13 39.467779 +01 32 07.54300
 2018-Oct-03 01:39     13 13 39.460974 +01 32 07.54331
 2018-Oct-03 01:40     13 13 39.454278 +01 32 07.54364
 2018-Oct-03 01:41     13 13 39.447689 +01 32 07.54399
 2018-Oct-03 01:42     13 13 39.441208 +01 32 07.54436
 2018-Oct-03 01:43     13 13 39.434834 +01 32 07.54475
 2018-Oct-03 01:44     13 13 39.428568 +01 32 07.54516
 2018-Oct-03 01:45     13 13 39.422407 +01 32 07.54560
 2018-Oct-03 01:46     13 13 39.416353 +01 32 07.54605
 2018-Oct-03 01:47     13 13 39.410405 +01 32 07.54652
 2018-Oct-03 01:48     13 13 39.404562 +01 32 07.54702
 2018-Oct-03 01:49     13 13 39.398824 +01 32 07.54754
 2018-Oct-03 01:50     13 13 39.393191 +01 32 07.54808
 2018-Oct-03 01:51     13 13 39.387661 +01 32 07.54864
 2018-Oct-03 01:52     13 13 39.382236 +01 32 07.54922
 2018-Oct-03 01:53     13 13 39.376914 +01 32 07.54983
 2018-Oct-03 01:54     13 13 39.371695 +01 32 07.55046
 2018-Oct-03 01:55     13 13 39.366579 +01 32 07.55111
 2018-Oct-03 01:56     13 13 39.361565 +01 32 07.55178
 2018-Oct-03 01:57     13 13 39.356652 +01 32 07.55248
 2018-Oct-03 01:58     13 13 39.351841 +01 32 07.55319
 2018-Oct-03 01:59     13 13 39.347131 +01 32 07.55394
 2018-Oct-03 02:00     13 13 39.342522 +01 32 07.55470
 2018-Oct-03 02:01     13 13 39.338013 +01 32 07.55549
 2018-Oct-03 02:02     13 13 39.333603 +01 32 07.55631
 2018-Oct-03 02:03     13 13 39.329293 +01 32 07.55714
 2018-Oct-03 02:04     13 13 39.325082 +01 32 07.55800
 2018-Oct-03 02:05     13 13 39.320970 +01 32 07.55889
 2018-Oct-03 02:06     13 13 39.316955 +01 32 07.55980
 2018-Oct-03 02:07     13 13 39.313038 +01 32 07.56073
 2018-Oct-03 02:08     13 13 39.309218 +01 32 07.56169
 2018-Oct-03 02:09     13 13 39.305496 +01 32 07.56268
 2018-Oct-03 02:10     13 13 39.301869 +01 32 07.56369
 2018-Oct-03 02:11     13 13 39.298339 +01 32 07.56472
 2018-Oct-03 02:12     13 13 39.294904 +01 32 07.56578
 2018-Oct-03 02:13     13 13 39.291564 +01 32 07.56686
 2018-Oct-03 02:14     13 13 39.288319 +01 32 07.56798
 2018-Oct-03 02:15     13 13 39.285168 +01 32 07.56911
 2018-Oct-03 02:16     13 13 39.282110 +01 32 07.57027
 2018-Oct-03 02:17     13 13 39.279147 +01 32 07.57146
 2018-Oct-03 02:18     13 13 39.276276 +01 32 07.57268
 2018-Oct-03 02:19     13 13 39.273497 +01 32 07.57392
 2018-Oct-03 02:20     13 13 39.270811 +01 32 07.57519
 2018-Oct-03 02:21     13 13 39.268216 +01 32 07.57648
 2018-Oct-03 02:22     13 13 39.265712 +01 32 07.57781
 2018-Oct-03 02:23     13 13 39.263299 +01 32 07.57915
 2018-Oct-03 02:24     13 13 39.260976 +01 32 07.58053
 2018-Oct-03 02:25     13 13 39.258743 +01 32 07.58193
 2018-Oct-03 02:26     13 13 39.256599 +01 32 07.58337
 2018-Oct-03 02:27     13 13 39.254544 +01 32 07.58483
 2018-Oct-03 02:28     13 13 39.252577 +01 32 07.58631
 2018-Oct-03 02:29     13 13 39.250698 +01 32 07.58783
 2018-Oct-03 02:30     13 13 39.248907 +01 32 07.58937
 2018-Oct-03 02:31     13 13 39.247203 +01 32 07.59094
 2018-Oct-03 02:32     13 13 39.245585 +01 32 07.59254
 2018-Oct-03 02:33     13 13 39.244053 +01 32 07.59417
 2018-Oct-03 02:34     13 13 39.242607 +01 32 07.59582
 2018-Oct-03 02:35     13 13 39.241246 +01 32 07.59751
 2018-Oct-03 02:36     13 13 39.239970 +01 32 07.59922
 2018-Oct-03 02:37     13 13 39.238778 +01 32 07.60097
 2018-Oct-03 02:38     13 13 39.237669 +01 32 07.60274
 2018-Oct-03 02:39     13 13 39.236644 +01 32 07.60454
 2018-Oct-03 02:40     13 13 39.235701 +01 32 07.60638
 2018-Oct-03 02:41     13 13 39.234841 +01 32 07.60824
 2018-Oct-03 02:42     13 13 39.234063 +01 32 07.61013
 2018-Oct-03 02:43     13 13 39.233366 +01 32 07.61205
 2018-Oct-03 02:44     13 13 39.232750 +01 32 07.61400
 2018-Oct-03 02:45     13 13 39.232214 +01 32 07.61598
 2018-Oct-03 02:46     13 13 39.231757 +01 32 07.61800
 2018-Oct-03 02:47     13 13 39.231381 +01 32 07.62004
 2018-Oct-03 02:48     13 13 39.231083 +01 32 07.62211
 2018-Oct-03 02:49     13 13 39.230863 +01 32 07.62422
 2018-Oct-03 02:50     13 13 39.230722 +01 32 07.62635
 2018-Oct-03 02:51     13 13 39.230658 +01 32 07.62852
 2018-Oct-03 02:52     13 13 39.230670 +01 32 07.63071
 2018-Oct-03 02:53     13 13 39.230759 +01 32 07.63294
 2018-Oct-03 02:54     13 13 39.230925 +01 32 07.63520
 2018-Oct-03 02:55     13 13 39.231165 +01 32 07.63749
 2018-Oct-03 02:56     13 13 39.231480 +01 32 07.63981
 2018-Oct-03 02:57     13 13 39.231870 +01 32 07.64217
 2018-Oct-03 02:58     13 13 39.232333 +01 32 07.64456
